{"fetched_at":"2026-07-15T06:35:42.366Z","source":"https://celestrak.org/NORAD/elements/gp.php?GROUP=spire&FORMAT=JSON","constellation":"spire","records":[{"OBJECT_NAME":"LEMUR-2-LEIA-PHILIP","OBJECT_ID":"2025-052AN","EPOCH":"2026-07-14T22:28:04.831392","CLASSIFICATION_TYPE":"U","MEAN_MOTION":14.97391318,"ECCENTRICITY":0.00050956,"INCLINATION":97.6807,"RA_OF_ASC_NODE":87.4167,"ARG_OF_PERICENTER":119.8953,"MEAN_ANOMALY":240.2776,"EPHEMERIS_TYPE":0,"NORAD_CAT_ID":63246,"ELEMENT_SET_NO":999,"REV_AT_EPOCH":7282,"BSTAR":0.000021592027,"MEAN_MOTION_DOT":0.00000193,"MEAN_MOTION_DDOT":0},{"OBJECT_NAME":"LEMUR-2-LIA-MARTIN","OBJECT_ID":"2025-052AQ","EPOCH":"2026-07-14T15:55:39.259776","CLASSIFICATION_TYPE":"U","MEAN_MOTION":14.98028183,"ECCENTRICITY":0.0005323,"INCLINATION":97.6872,"RA_OF_ASC_NODE":87.6667,"ARG_OF_PERICENTER":90.9786,"MEAN_ANOMALY":269.2046,"EPHEMERIS_TYPE":0,"NORAD_CAT_ID":63248,"ELEMENT_SET_NO":999,"REV_AT_EPOCH":7279,"BSTAR":0.00020187793,"MEAN_MOTION_DOT":0.00002328,"MEAN_MOTION_DDOT":0},{"OBJECT_NAME":"LEMUR-2-DELOITTE-1","OBJECT_ID":"2025-052BB","EPOCH":"2026-07-14T17:03:35.050176","CLASSIFICATION_TYPE":"U","MEAN_MOTION":14.97779672,"ECCENTRICITY":0.00025186,"INCLINATION":97.6883,"RA_OF_ASC_NODE":88.0432,"ARG_OF_PERICENTER":65.5958,"MEAN_ANOMALY":294.5527,"EPHEMERIS_TYPE":0,"NORAD_CAT_ID":63259,"ELEMENT_SET_NO":999,"REV_AT_EPOCH":7281,"BSTAR":0.00020091075,"MEAN_MOTION_DOT":0.00002301,"MEAN_MOTION_DDOT":0},{"OBJECT_NAME":"LEMUR-2-EMERSONROSE","OBJECT_ID":"2025-052BD","EPOCH":"2026-07-14T15:48:36.102816","CLASSIFICATION_TYPE":"U","MEAN_MOTION":14.9928812,"ECCENTRICITY":0.00027468,"INCLINATION":97.6885,"RA_OF_ASC_NODE":88.6039,"ARG_OF_PERICENTER":61.6486,"MEAN_ANOMALY":298.5014,"EPHEMERIS_TYPE":0,"NORAD_CAT_ID":63261,"ELEMENT_SET_NO":999,"REV_AT_EPOCH":7285,"BSTAR":0.00023258431,"MEAN_MOTION_DOT":0.0000278,"MEAN_MOTION_DDOT":0},{"OBJECT_NAME":"LEMUR-2-MARACHE-FRAN","OBJECT_ID":"2025-052BE","EPOCH":"2026-07-14T16:21:49.775040","CLASSIFICATION_TYPE":"U","MEAN_MOTION":15.00313702,"ECCENTRICITY":0.00051325,"INCLINATION":97.684,"RA_OF_ASC_NODE":88.9942,"ARG_OF_PERICENTER":254.1706,"MEAN_ANOMALY":105.8952,"EPHEMERIS_TYPE":0,"NORAD_CAT_ID":63262,"ELEMENT_SET_NO":999,"REV_AT_EPOCH":7288,"BSTAR":0.00014882733,"MEAN_MOTION_DOT":0.00001807,"MEAN_MOTION_DDOT":0},{"OBJECT_NAME":"LEMUR-2-THEFALCONER","OBJECT_ID":"2025-052BG","EPOCH":"2026-07-14T16:11:07.289952","CLASSIFICATION_TYPE":"U","MEAN_MOTION":14.97562332,"ECCENTRICITY":0.00003055,"INCLINATION":97.6834,"RA_OF_ASC_NODE":87.5989,"ARG_OF_PERICENTER":310.29,"MEAN_ANOMALY":49.8296,"EPHEMERIS_TYPE":0,"NORAD_CAT_ID":63264,"ELEMENT_SET_NO":999,"REV_AT_EPOCH":7280,"BSTAR":0.000091950039,"MEAN_MOTION_DOT":0.00001016,"MEAN_MOTION_DDOT":0},{"OBJECT_NAME":"LEMUR-2-UNTITLED-SC","OBJECT_ID":"2025-061A","EPOCH":"2026-07-14T22:06:56.736000","CLASSIFICATION_TYPE":"U","MEAN_MOTION":15.1364543,"ECCENTRICITY":0.00192115,"INCLINATION":97.5652,"RA_OF_ASC_NODE":171.0866,"ARG_OF_PERICENTER":163.9754,"MEAN_ANOMALY":196.2089,"EPHEMERIS_TYPE":0,"NORAD_CAT_ID":63351,"ELEMENT_SET_NO":999,"REV_AT_EPOCH":7178,"BSTAR":0.000092971971,"MEAN_MOTION_DOT":0.00001611,"MEAN_MOTION_DDOT":0},{"OBJECT_NAME":"LEMUR-2-ESPERANZA","OBJECT_ID":"2025-061B","EPOCH":"2026-07-14T21:31:27.406272","CLASSIFICATION_TYPE":"U","MEAN_MOTION":15.13751282,"ECCENTRICITY":0.00188243,"INCLINATION":97.5659,"RA_OF_ASC_NODE":171.1621,"ARG_OF_PERICENTER":163.2431,"MEAN_ANOMALY":196.9426,"EPHEMERIS_TYPE":0,"NORAD_CAT_ID":63352,"ELEMENT_SET_NO":999,"REV_AT_EPOCH":7178,"BSTAR":0.00010314055,"MEAN_MOTION_DOT":0.00001799,"MEAN_MOTION_DDOT":0},{"OBJECT_NAME":"LEMUR-2-KREMPEL-BRO2","OBJECT_ID":"2025-061C","EPOCH":"2026-07-14T21:58:53.744448","CLASSIFICATION_TYPE":"U","MEAN_MOTION":15.14177711,"ECCENTRICITY":0.00199463,"INCLINATION":97.5705,"RA_OF_ASC_NODE":171.7497,"ARG_OF_PERICENTER":156.1877,"MEAN_ANOMALY":204.0282,"EPHEMERIS_TYPE":0,"NORAD_CAT_ID":63353,"ELEMENT_SET_NO":999,"REV_AT_EPOCH":7180,"BSTAR":0.000091080071,"MEAN_MOTION_DOT":0.00001601,"MEAN_MOTION_DDOT":0},{"OBJECT_NAME":"LEMUR-2-THERMORAPTOR","OBJECT_ID":"2025-061D","EPOCH":"2026-07-14T21:30:55.326816","CLASSIFICATION_TYPE":"U","MEAN_MOTION":15.14260636,"ECCENTRICITY":0.00197049,"INCLINATION":97.571,"RA_OF_ASC_NODE":171.8114,"ARG_OF_PERICENTER":155.094,"MEAN_ANOMALY":205.1247,"EPHEMERIS_TYPE":0,"NORAD_CAT_ID":63354,"ELEMENT_SET_NO":999,"REV_AT_EPOCH":7180,"BSTAR":0.00011201125,"MEAN_MOTION_DOT":0.0000199,"MEAN_MOTION_DDOT":0},{"OBJECT_NAME":"LEMUR-2-NEUROSPICY","OBJECT_ID":"2025-061E","EPOCH":"2026-07-14T20:47:03.322752","CLASSIFICATION_TYPE":"U","MEAN_MOTION":15.1437954,"ECCENTRICITY":0.00174571,"INCLINATION":97.5638,"RA_OF_ASC_NODE":171.386,"ARG_OF_PERICENTER":158.0548,"MEAN_ANOMALY":202.1435,"EPHEMERIS_TYPE":0,"NORAD_CAT_ID":63355,"ELEMENT_SET_NO":999,"REV_AT_EPOCH":7180,"BSTAR":0.00011331713,"MEAN_MOTION_DOT":0.00002019,"MEAN_MOTION_DDOT":0},{"OBJECT_NAME":"LEMUR-2-TILLINFINITY","OBJECT_ID":"2025-061F","EPOCH":"2026-07-14T21:22:28.682400","CLASSIFICATION_TYPE":"U","MEAN_MOTION":15.14963133,"ECCENTRICITY":0.00190367,"INCLINATION":97.5623,"RA_OF_ASC_NODE":171.7204,"ARG_OF_PERICENTER":146.8297,"MEAN_ANOMALY":213.4133,"EPHEMERIS_TYPE":0,"NORAD_CAT_ID":63356,"ELEMENT_SET_NO":999,"REV_AT_EPOCH":7183,"BSTAR":0.00011684046,"MEAN_MOTION_DOT":0.0000212,"MEAN_MOTION_DDOT":0},{"OBJECT_NAME":"LEMUR-2-KREMPEL-BRO1","OBJECT_ID":"2025-061G","EPOCH":"2026-07-14T20:49:22.423296","CLASSIFICATION_TYPE":"U","MEAN_MOTION":15.14770588,"ECCENTRICITY":0.00196635,"INCLINATION":97.5623,"RA_OF_ASC_NODE":171.6057,"ARG_OF_PERICENTER":148.3273,"MEAN_ANOMALY":211.9146,"EPHEMERIS_TYPE":0,"NORAD_CAT_ID":63357,"ELEMENT_SET_NO":999,"REV_AT_EPOCH":7182,"BSTAR":0.00011295032,"MEAN_MOTION_DOT":0.00002037,"MEAN_MOTION_DDOT":0},{"OBJECT_NAME":"LEMUR-2-LANGER2SPACE","OBJECT_ID":"2025-061H","EPOCH":"2026-07-14T21:35:32.440128","CLASSIFICATION_TYPE":"U","MEAN_MOTION":15.14463886,"ECCENTRICITY":0.00173972,"INCLINATION":97.563,"RA_OF_ASC_NODE":171.4405,"ARG_OF_PERICENTER":156.1893,"MEAN_ANOMALY":204.0148,"EPHEMERIS_TYPE":0,"NORAD_CAT_ID":63358,"ELEMENT_SET_NO":999,"REV_AT_EPOCH":7181,"BSTAR":0.00010499637,"MEAN_MOTION_DOT":0.0000187,"MEAN_MOTION_DDOT":0},{"OBJECT_NAME":"LEMUR-2-BALTO","OBJECT_ID":"2025-052BH","EPOCH":"2026-07-14T15:59:20.189760","CLASSIFICATION_TYPE":"U","MEAN_MOTION":15.00361361,"ECCENTRICITY":0.00051474,"INCLINATION":97.693,"RA_OF_ASC_NODE":88.9659,"ARG_OF_PERICENTER":329.8466,"MEAN_ANOMALY":30.246,"EPHEMERIS_TYPE":0,"NORAD_CAT_ID":63395,"ELEMENT_SET_NO":999,"REV_AT_EPOCH":7288,"BSTAR":0.00021455712,"MEAN_MOTION_DOT":0.00002634,"MEAN_MOTION_DDOT":0},{"OBJECT_NAME":"LEMUR-2-KRISH","OBJECT_ID":"2025-135AK","EPOCH":"2026-07-14T06:59:13.109280","CLASSIFICATION_TYPE":"U","MEAN_MOTION":14.96445154,"ECCENTRICITY":0.00013907,"INCLINATION":97.7772,"RA_OF_ASC_NODE":309.9867,"ARG_OF_PERICENTER":95.6584,"MEAN_ANOMALY":264.4796,"EPHEMERIS_TYPE":0,"NORAD_CAT_ID":64561,"ELEMENT_SET_NO":999,"REV_AT_EPOCH":5797,"BSTAR":0.00017575838,"MEAN_MOTION_DOT":0.00001935,"MEAN_MOTION_DDOT":0}]}
